NORAD_CAT_ID,OBJECT_NAME,OBJECT_TYPE,EPOCH,MEAN_MOTION,ECCENTRICITY,INCLINATION,RA_OF_ASC_NODE,ARG_OF_PERICENTER,MEAN_ANOMALY,BSTAR,MEAN_MOTION_DOT,MEAN_MOTION_DDOT,TLE_LINE0,TLE_LINE1,TLE_LINE2,SEMIMAJOR_AXIS,PERIOD,APOGEE,PERIGEE,DECAYED
53738.0,STARLINK-4662,PAYLOAD,2023-08-08 06:50:52,15.08845914,0.0001263,53.2165,183.4885,94.4839,265.6298,9.0034e-05,1.146e-05,0.0,0 STARLINK-4662,1 53738U 22107AQ  23220.28533132  .00001146  00000-0  90034-4 0  9996,2 53738  53.2165 183.4885 0001263  94.4839 265.6298 15.08845914 51241,6917.862,95.437,540.601,538.854,0.0
53738.0,STARLINK-4662,PAYLOAD,2023-08-08 14:47:50,15.08823774,0.0001463,53.2166,182.0003,82.9674,277.1485,-8.4748e-05,-1.636e-05,0.0,0 STARLINK-4662,1 53738U 22107AQ  23220.61655123 -.00001636  00000-0 -84748-4 0  9999,2 53738  53.2166 182.0003 0001463  82.9674 277.1485 15.08823774 51291,6917.93,95.439,540.807,538.783,0.0
53738.0,STARLINK-4662,PAYLOAD,2023-08-09 06:41:41,15.08832191,0.0001238,53.2164,179.028,89.2724,270.841,2.1564e-05,5.5e-07,0.0,0 STARLINK-4662,1 53738U 22107AQ  23221.27894697  .00000055  00000-0  21564-4 0  9992,2 53738  53.2164 179.0280 0001238  89.2724 270.8410 15.08832191 51390,6917.904,95.438,540.626,538.913,0.0
53738.0,STARLINK-4662,PAYLOAD,2023-08-10 00:10:55,15.08842507,0.0001239,53.2164,175.7573,86.9958,273.1176,2.7504e-05,1.5e-06,0.0,0 STARLINK-4662,1 53738U 22107AQ  23222.00758118  .00000150  00000-0  27504-4 0  9997,2 53738  53.2164 175.7573 0001239  86.9958 273.1176 15.08842507 51502,6917.873,95.437,540.595,538.881,0.0
53738.0,STARLINK-4662,PAYLOAD,2023-08-10 14:29:22,15.08849515,0.0001242,53.2164,173.0813,85.9875,274.1259,3.7171e-05,3.04e-06,0.0,0 STARLINK-4662,1 53738U 22107AQ  23222.60373452  .00000304  00000-0  37171-4 0  9999,2 53738  53.2164 173.0813 0001242  85.9875 274.1259 15.08849515 51599,6917.851,95.437,540.576,538.857,0.0
53738.0,STARLINK-4662,PAYLOAD,2023-08-11 00:01:42,15.08825732,7.38e-05,53.2171,171.2977,96.8389,263.2687,0.00030026,4.492e-05,0.0,0 STARLINK-4662,1 53738U 22107AQ  23223.00118126  .00004492  00000-0  30026-3 0  9992,2 53738  53.2171 171.2977 0000738  96.8389 263.2687 15.08825732 51654,6917.924,95.438,540.3,539.278,0.0
53738.0,STARLINK-4662,PAYLOAD,2023-08-11 06:23:14,15.08842201,0.0001389,53.2156,170.1072,91.1823,268.9329,0.00012138,1.644e-05,0.0,0 STARLINK-4662,1 53738U 22107AQ  23223.26613683  .00001644  00000-0  12138-3 0  9998,2 53738  53.2156 170.1072 0001389  91.1823 268.9329 15.08842201 51694,6917.874,95.437,540.7,538.778,0.0
53738.0,STARLINK-4662,PAYLOAD,2023-08-12 03:03:15,15.08837727,0.0001263,53.2166,166.2418,88.8478,271.2659,-2.5971e-05,-7.01e-06,0.0,0 STARLINK-4662,1 53738U 22107AQ  23224.12726549 -.00000701  00000-0 -25971-4 0  9995,2 53738  53.2166 166.2418 0001263  88.8478 271.2659 15.08837727 51820,6917.887,95.438,540.626,538.879,0.0
53738.0,STARLINK-4662,PAYLOAD,2023-08-13 02:54:01,15.0884756,0.0001229,53.2171,161.781,88.744,271.3692,7.6431e-05,9.29e-06,0.0,0 STARLINK-4662,1 53738U 22107AQ  23225.12085613  .00000929  00000-0  76431-4 0  9993,2 53738  53.2171 161.7810 0001229  88.7440 271.3692 15.08847560 51972,6917.857,95.437,540.572,538.872,0.0
53738.0,STARLINK-4662,PAYLOAD,2023-08-13 06:04:47,15.0887236,0.0001533,53.2171,161.1863,113.7775,246.3378,-0.00026351,-4.483e-05,0.0,0 STARLINK-4662,1 53738U 22107AQ  23225.25332728 -.00004483  00000-0 -26351-3 0  9995,2 53738  53.2171 161.1863 0001533 113.7775 246.3378 15.08872360 51993,6917.781,95.436,540.707,538.586,0.0
53738.0,STARLINK-4662,PAYLOAD,2023-08-14 02:44:50,15.08833558,0.0001191,53.2168,157.3215,83.0534,277.0593,1.94e-05,2.1e-07,0.0,0 STARLINK-4662,1 53738U 22107AQ  23226.11446913  .00000021  00000-0  19400-4 0  9993,2 53738  53.2168 157.3215 0001191  83.0534 277.0593 15.08833558 52121,6917.9,95.438,540.589,538.941,0.0
53738.0,STARLINK-4662,PAYLOAD,2023-08-14 05:55:36,15.08838903,0.0001225,53.2167,156.7256,80.8746,279.2385,4.5228e-05,4.32e-06,0.0,0 STARLINK-4662,1 53738U 22107AQ  23226.24694522  .00000432  00000-0  45228-4 0  9991,2 53738  53.2167 156.7256 0001225  80.8746 279.2385 15.08838903 52140,6917.884,95.438,540.596,538.901,0.0
53738.0,STARLINK-4662,PAYLOAD,2023-08-16 02:26:23,15.08843318,0.0001363,53.2169,148.3997,81.2979,278.8167,9.2952e-05,1.192e-05,0.0,0 STARLINK-4662,1 53738U 22107AQ  23228.10166401  .00001192  00000-0  92952-4 0  9998,2 53738  53.2169 148.3997 0001363  81.2979 278.8167 15.08843318 52427,6917.87,95.437,540.678,538.792,0.0
53738.0,STARLINK-4662,PAYLOAD,2023-08-17 03:52:33,15.08850205,0.0001434,53.2173,143.6432,88.6584,271.4572,9.3066e-05,1.194e-05,0.0,0 STARLINK-4662,1 53738U 22107AQ  23229.16149896  .00001194  00000-0  93066-4 0  9993,2 53738  53.2173 143.6432 0001434  88.6584 271.4572 15.08850205 52585,6917.849,95.437,540.706,538.722,0.0
53738.0,STARLINK-4662,PAYLOAD,2023-08-17 18:11:02,15.08842899,0.0001572,53.217,140.9685,86.3906,273.7266,-1.412e-05,-5.13e-06,0.0,0 STARLINK-4662,1 53738U 22107AQ  23229.75766723 -.00000513  00000-0 -14120-4 0  9992,2 53738  53.2170 140.9685 0001572  86.3906 273.7266 15.08842899 52673,6917.872,95.437,540.824,538.649,0.0
53738.0,STARLINK-4662,PAYLOAD,2023-08-18 00:32:36,15.08826621,0.0001288,53.217,139.7792,80.6489,279.4648,-0.00014511,-2.596e-05,0.0,0 STARLINK-4662,1 53738U 22107AQ  23230.02264157 -.00002596  00000-0 -14511-3 0  9994,2 53738  53.2170 139.7792 0001288  80.6489 279.4648 15.08826621 52712,6917.921,95.438,540.677,538.895,0.0
53738.0,STARLINK-4662,PAYLOAD,2023-08-19 00:23:22,15.08839092,0.0001246,53.2164,135.3167,80.7735,279.3398,-2.4088e-06,-3.26e-06,0.0,0 STARLINK-4662,1 53738U 22107AQ  23231.01623343 -.00000326  00000-0 -24088-5 0  9991,2 53738  53.2164 135.3167 0001246  80.7735 279.3398 15.08839092 52865,6917.883,95.438,540.61,538.886,0.0
53738.0,STARLINK-4662,PAYLOAD,2023-08-20 01:49:32,15.08833817,0.0001511,53.2178,130.5591,80.5847,279.5316,0.00016416,2.325e-05,0.0,0 STARLINK-4662,1 53738U 22107AQ  23232.07607437  .00002325  00000-0  16416-3 0  9997,2 53738  53.2178 130.5591 0001511  80.5847 279.5316 15.08833817 53025,6917.899,95.438,540.81,538.719,0.0
53738.0,STARLINK-4662,PAYLOAD,2023-08-21 03:15:42,15.08855824,0.0001426,53.2177,125.8017,88.3027,271.8128,7.3666e-05,8.85e-06,0.0,0 STARLINK-4662,1 53738U 22107AQ  23233.13590312  .00000885  00000-0  73666-4 0  9998,2 53738  53.2177 125.8017 0001426  88.3027 271.8128 15.08855824 53180,6917.832,95.437,540.684,538.711,0.0
53738.0,STARLINK-4662,PAYLOAD,2023-08-21 20:44:57,15.08833477,0.0001441,53.2182,122.5332,98.8882,261.2273,-1.5473e-05,-5.34e-06,0.0,0 STARLINK-4662,1 53738U 22107AQ  23233.86455979 -.00000534  00000-0 -15473-4 0  9992,2 53738  53.2182 122.5332 0001441  98.8882 261.2273 15.08833477 53298,6917.9,95.438,540.762,538.768,0.0
53738.0,STARLINK-4662,PAYLOAD,2023-08-22 01:31:07,15.08838666,0.0001509,53.2176,121.6348,86.573,273.5435,6.5078e-06,-1.84e-06,0.0,0 STARLINK-4662,1 53738U 22107AQ  23234.06327636 -.00000184  00000-0  65078-5 0  9990,2 53738  53.2176 121.6348 0001509  86.5730 273.5435 15.08838666 53324,6917.884,95.438,540.793,538.706,0.0
53738.0,STARLINK-4662,PAYLOAD,2023-08-23 01:21:53,15.08846126,0.0001469,53.2175,117.1782,88.4969,271.6192,1.7904e-06,-2.59e-06,0.0,0 STARLINK-4662,1 53738U 22107AQ  23235.05687318 -.00000259  00000-0  17904-5 0  9994,2 53738  53.2175 117.1782 0001469  88.4969 271.6192 15.08846126 53470,6917.862,95.437,540.743,538.71,0.0
53738.0,STARLINK-4662,PAYLOAD,2023-08-24 01:12:41,15.08840859,0.0001351,53.2168,112.7166,83.7768,276.3378,8.2228e-05,1.021e-05,0.0,0 STARLINK-4662,1 53738U 22107AQ  23236.05047620  .00001021  00000-0  82228-4 0  9998,2 53738  53.2168 112.7166 0001351  83.7768 276.3378 15.08840859 54256,6917.878,95.438,540.677,538.808,0.0
53738.0,STARLINK-4662,PAYLOAD,2023-08-25 18:32:42,15.08845163,0.0001318,53.2169,104.9845,81.4151,278.699,3.2205e-05,2.25e-06,0.0,0 STARLINK-4662,1 53738U 22107AQ  23237.77271270  .00000225  00000-0  32205-4 0  9993,2 53738  53.2169 104.9845 0001318  81.4151 278.6990 15.08845163 53884,6917.865,95.437,540.641,538.818,0.0
53738.0,STARLINK-4662,PAYLOAD,2023-08-25 20:08:05,15.08845851,0.0001362,53.217,104.6873,79.107,281.0075,3.9255e-05,3.37e-06,0.0,0 STARLINK-4662,1 53738U 22107AQ  23237.83895202  .00000337  00000-0  39255-4 0  9993,2 53738  53.2170 104.6873 0001362  79.1070 281.0075 15.08845851 54525,6917.863,95.437,540.67,538.785,0.0
53738.0,STARLINK-4662,PAYLOAD,2023-08-26 00:54:14,15.08847864,0.0001393,53.2168,103.7957,78.3453,281.7695,5.8968e-05,6.51e-06,0.0,0 STARLINK-4662,1 53738U 22107AQ  23238.03766948  .00000651  00000-0  58968-4 0  9991,2 53738  53.2168 103.7957 0001393  78.3453 281.7695 15.08847864 54559,6917.856,95.437,540.685,538.758,0.0
53738.0,STARLINK-4662,PAYLOAD,2023-08-26 18:23:29,15.0883765,0.0001527,53.2169,100.5227,108.3249,251.7909,-4.3482e-05,-9.8e-06,0.0,0 STARLINK-4662,1 53738U 22107AQ  23238.76631930 -.00000980  00000-0 -43482-4 0  9995,2 53738  53.2169 100.5227 0001527 108.3249 251.7909 15.08837650 54031,6917.888,95.438,540.809,538.696,0.0
53738.0,STARLINK-4662,PAYLOAD,2023-08-26 21:34:16,15.08838109,0.0001426,53.2169,99.9284,96.0519,264.0636,-2.2122e-05,-6.4e-06,0.0,0 STARLINK-4662,1 53738U 22107AQ  23238.89879835 -.00000640  00000-0 -22122-4 0  9998,2 53738  53.2169  99.9284 0001426  96.0519 264.0636 15.08838109 54681,6917.886,95.438,540.738,538.765,0.0
53738.0,STARLINK-4662,PAYLOAD,2023-08-27 00:45:02,15.08834033,0.0001535,53.217,99.3327,97.581,262.5357,-2.3043e-05,-6.55e-06,0.0,0 STARLINK-4662,1 53738U 22107AQ  23239.03128005 -.00000655  00000-0 -23043-4 0  9990,2 53738  53.2170  99.3327 0001535  97.5810 262.5357 15.08834033 54704,6917.899,95.438,540.826,538.702,0.0
53738.0,STARLINK-4662,PAYLOAD,2023-08-27 21:25:03,15.0883825,0.0001492,53.2171,95.467,98.817,261.2991,8.5476e-06,-1.52e-06,0.0,0 STARLINK-4662,1 53738U 22107AQ  23239.89239772 -.00000152  00000-0  85476-5 0  9998,2 53738  53.2171  95.4670 0001492  98.8170 261.2991 15.08838250 54837,6917.886,95.438,540.783,538.719,0.0
